[ {"name": "STARLINK-4772", "line1": "1 53932U 22119AY  26136.98060708  .00000505  00000+0  49808-4 0  9995", "line2": "2 53932  53.2187 352.6422 0001470  89.9485 270.1676 15.08842576202356"}, {"name": "STARLINK-4782", "line1": "1 53933U 22119AZ  26137.02611909  .00000058  00000+0  21727-4 0  9990", "line2": "2 53933  53.2192 357.2057 0001408  92.0058 268.1095 15.08841209202286"}, {"name": "STARLINK-4775", "line1": "1 53934U 22119BA  26137.30815419 -.00001863  00000+0 -98995-4 0  9992", "line2": "2 53934  53.2118 351.1275 0003665  74.4149 285.7247 15.08813634202412"}, {"name": "STARLINK-5000", "line1": "1 53935U 22119BB  26137.50002315  .00198934  00000+0  21553-2 0  9996", "line2": "2 53935  53.2170 327.0283 0001068  69.3413 192.7235 15.62400880  5885"}, {"name": "STARLINK-4791", "line1": "1 53936U 22119BC  26136.88122208  .00004838  00000+0  32178-3 0  9996", "line2": "2 53936  53.2189 352.7329 0001340 102.6932 257.4210 15.08851148202341"}, {"name": "STARLINK-4633", "line1": "1 53964U 22125A   26136.67655802 -.00000335  00000+0 -29781-5 0  9990", "line2": "2 53964  53.2185 279.0709 0001006  84.0342 276.0765 15.08836035199589"}, {"name": "STARLINK-4635", "line1": "1 53966U 22125C   26137.39782516  .00000364  00000+0  40924-4 0  9996", "line2": "2 53966  53.2173 275.7535 0001158  90.7535 269.3590 15.08839836199699"}, {"name": "STARLINK-4634", "line1": "1 53967U 22125D   26137.39414602  .00000036  00000+0  20323-4 0  9992", "line2": "2 53967  53.2174 275.7287 0001059  91.6641 268.4473 15.08838554199699"}, {"name": "STARLINK-4629", "line1": "1 53968U 22125E   26137.11812813 -.00000467  00000+0 -11241-4 0  9998", "line2": "2 53968  53.2183 276.8508 0001012  74.7043 285.4061 15.08841774199651"}, {"name": "STARLINK-4468", "line1": "1 53969U 22125F   26137.39046104 -.00000362  00000+0 -46421-5 0  9994", "line2": "2 53969  53.2164 275.7008 0001754 120.0679 240.0487 15.08835309199697"}, {"name": "STARLINK-4567", "line1": "1 53970U 22125G   26137.39277131 -.00000802  00000+0 -32335-4 0  9999", "line2": "2 53970  53.2149 270.7400 0001221  90.1859 269.9273 15.08832117199775"}, {"name": "STARLINK-5156", "line1": "1 53973U 22125K   26137.37940766 -.00000434  00000+0 -91919-5 0  9996", "line2": "2 53973  53.2133 275.6371 0001315 105.2836 254.8302 15.08837713199693"}, {"name": "STARLINK-5159", "line1": "1 53974U 22125L   26137.48057609 -.00001133  00000+0 -53114-4 0  9995", "line2": "2 53974  53.2154 254.9071 0001346 100.1960 259.9184 15.08832135199990"}, {"name": "STARLINK-5137", "line1": "1 53975U 22125M   26137.08359047  .00000364  00000+0  40937-4 0  9995", "line2": "2 53975  53.2165 271.6657 0001275  92.4427 267.6711 15.08837700199727"}, {"name": "STARLINK-5134", "line1": "1 53976U 22125N   26137.46223800 -.00000466  00000+0 -11148-4 0  9992", "line2": "2 53976  53.2152 255.5038 0001732 102.8658 257.2527 15.08840256199986"}, {"name": "STARLINK-5094", "line1": "1 53977U 22125P   26137.40013263  .00000029  00000+0  19940-4 0  9998", "line2": "2 53977  53.2212 270.7793 0001372  90.4956 269.6193 15.08838394199766"}, {"name": "STARLINK-5148", "line1": "1 53978U 22125Q   26137.38171263 -.00000752  00000+0 -29187-4 0  9990", "line2": "2 53978  53.2166 270.6635 0001252  87.6393 272.4742 15.08833753199765"}, {"name": "STARLINK-5123", "line1": "1 53979U 22125R   26137.38908318 -.00000787  00000+0 -31365-4 0  9999", "line2": "2 53979  53.2125 270.7102 0001476  94.1436 265.9724 15.08836188199762"}, {"name": "STARLINK-5133", "line1": "1 53980U 22125S   26137.49577050 -.00001455  00000+0 -73372-4 0  9995", "line2": "2 53980  53.2171 269.9613 0000703  13.0935 347.0075 15.08849586199787"}, {"name": "STARLINK-5149", "line1": "1 53981U 22125T   26137.49531669 -.00000377  00000+0 -55985-5 0  9995", "line2": "2 53981  53.2162 255.0158 0001048  86.6249 273.4863 15.08834718199996"}, {"name": "STARLINK-5120", "line1": "1 53982U 22125U   26137.39139044  .00003711  00000+0  25140-3 0  9997", "line2": "2 53982  53.2195 265.7460 0001684 100.6370 259.4812 15.08801386199820"}, {"name": "STARLINK-5142", "line1": "1 53984U 22125W   26137.33619525  .00001043  00000+0  83604-4 0  9996", "line2": "2 53984  53.2154 266.1094 0001002  96.6869 263.4237 15.08838961199821"}, {"name": "STARLINK-5147", "line1": "1 53985U 22125X   26137.34356926  .00001227  00000+0  95177-4 0  9993", "line2": "2 53985  53.2178 266.1553 0000979  84.9773 275.1331 15.08834677199829"}, {"name": "STARLINK-5119", "line1": "1 53986U 22125Y   26137.48794984 -.00001818  00000+0 -96216-4 0  9992", "line2": "2 53986  53.2184 254.9545 0001101  88.7113 271.4005 15.08832161199981"}, {"name": "STARLINK-5113", "line1": "1 53988U 22125AA  26137.39875668  .00000287  00000+0  36149-4 0  9999", "line2": "2 53988  53.2188 265.7890 0001371  96.4599 263.6549 15.08835674199824"}, {"name": "STARLINK-5118", "line1": "1 53991U 22125AD  26137.31869354 -.00000157  00000+0  82046-5 0  9995", "line2": "2 53991  53.2136 255.9664 0001134  89.0328 271.0794 15.08835068199952"}, {"name": "STARLINK-5108", "line1": "1 53992U 22125AE  26137.05649741  .00000092  00000+0  23837-4 0  9992", "line2": "2 53992  53.2170 267.2093 0001234  87.1213 272.9920 15.08839183199779"}, {"name": "STARLINK-5121", "line1": "1 53993U 22125AF  26137.49669801 -.00004038  00000+0 -23573-3 0  9992", "line2": "2 53993  53.2167 259.9851 0001665 103.4617 256.6560 15.08846804199917"}, {"name": "STARLINK-5125", "line1": "1 53994U 22125AG  26137.37664902 -.00001082  00000+0 -49896-4 0  9990", "line2": "2 53994  53.2164 265.6504 0001263  87.5079 272.6057 15.08833936199834"}, {"name": "STARLINK-5097", "line1": "1 53995U 22125AH  26137.38401900 -.00000773  00000+0 -30532-4 0  9992", "line2": "2 53995  53.2182 265.7011 0000845  75.7298 284.3788 15.08832438199822"}, {"name": "STARLINK-5131", "line1": "1 53996U 22125AJ  26137.50544389 -.00000835  00000+0 -34406-4 0  9999", "line2": "2 53996  53.2159 265.0335 0001293  92.8006 267.3134 15.08831308199858"}, {"name": "STARLINK-5130", "line1": "1 53997U 22125AK  26137.47328848 -.00000746  00000+0 -28781-4 0  9996", "line2": "2 53997  53.2179 255.5612 0001428 101.5852 258.5300 15.08836235199985"}, {"name": "STARLINK-5128", "line1": "1 53998U 22125AL  26137.49807497 -.00001364  00000+0 -67613-4 0  9995", "line2": "2 53998  53.2166 264.9893 0001390  74.1846 285.9300 15.08846214199851"}, {"name": "STARLINK-5079", "line1": "1 53999U 22125AM  26137.38033513 -.00001213  00000+0 -58164-4 0  9998", "line2": "2 53999  53.2178 265.6743 0001556  94.6774 265.4396 15.08832984199833"}, {"name": "STARLINK-5088", "line1": "1 54000U 22125AN  26137.46961147 -.00002536  00000+0 -14130-3 0  9997", "line2": "2 54000  53.2168 255.5441 0002047  81.1906 278.9318 15.08840306199989"}, {"name": "STARLINK-5109", "line1": "1 54002U 22125AQ  26137.49162105  .00005682  00000+0  37478-3 0  9992", "line2": "2 54002  53.2184 254.9928 0001091 101.0505 259.0610 15.08840264199996"}, {"name": "STARLINK-5114", "line1": "1 54003U 22125AR  26137.50176838 -.00001587  00000+0 -81653-4 0  9990", "line2": "2 54003  53.2176 265.0105 0000806 129.3494 230.7570 15.08839096199858"}, {"name": "STARLINK-5129", "line1": "1 54004U 22125AS  26137.49069573  .00000445  00000+0  46034-4 0  9990", "line2": "2 54004  53.2164 264.9411 0001140  97.3641 262.7480 15.08843595199858"}, {"name": "STARLINK-5135", "line1": "1 54005U 22125AT  26137.49438286  .00000370  00000+0  41324-4 0  9996", "line2": "2 54005  53.2158 264.9619 0001457  95.7229 264.3930 15.08843311199851"}, {"name": "STARLINK-5096", "line1": "1 54006U 22125AU  26137.34717323 -.00000637  00000+0 -21916-4 0  9996", "line2": "2 54006  53.2152 265.4774 0001511  90.2583 269.8582 15.08835415199824"}, {"name": "STARLINK-5132", "line1": "1 54007U 22125AV  26137.48701469  .00000655  00000+0  59250-4 0  9996", "line2": "2 54007  53.2167 264.9200 0001283  88.4774 271.6366 15.08828893199852"}, {"name": "STARLINK-5145", "line1": "1 54008U 22125AW  26137.48426352 -.00001818  00000+0 -96227-4 0  9991", "line2": "2 54008  53.2178 254.9301 0000982  65.8053 294.3042 15.08829959199992"}, {"name": "STARLINK-5099", "line1": "1 54009U 22125AX  26137.35084840  .00000260  00000+0  34437-4 0  9993", "line2": "2 54009  53.2172 265.4921 0001206  90.4205 269.6926 15.08842746199833"}, {"name": "STARLINK-5127", "line1": "1 54010U 22125AY  26137.47689150 -.00001075  00000+0 -49506-4 0  9993", "line2": "2 54010  53.2172 254.8951 0000952  96.4965 263.6135 15.08833990199990"}, {"name": "STARLINK-5124", "line1": "1 54011U 22125AZ  26137.46592519 -.00002041  00000+0 -11020-3 0  9998", "line2": "2 54011  53.2158 255.5186 0001218 103.6907 256.4220 15.08835032199989"}, {"name": "STARLINK-5126", "line1": "1 54012U 22125BA  26137.37389465 -.00001457  00000+0 -73532-4 0  9990", "line2": "2 54012  53.2177 255.6621 0000943  97.4191 262.6908 15.08831097199973"}, {"name": "STARLINK-5098", "line1": "1 54013U 22125BB  26137.31501920 -.00000577  00000+0 -18164-4 0  9999", "line2": "2 54013  53.2166 256.0057 0001104  87.3733 272.7385 15.08833811199966"}, {"name": "STARLINK-5055", "line1": "1 54015U 22125BD  26137.04635549  .00001758  00000+0  12846-3 0  9996", "line2": "2 54015  53.2165 257.1642 0001387  82.4852 277.6297 15.08852028199923"}, {"name": "STARLINK-5195", "line1": "1 54051U 22136A   26137.13656622  .00003596  00000+0  24393-3 0  9995", "line2": "2 54051  53.2188  37.0961 0002047  75.1975 284.9243 15.08843406197173"}, {"name": "STARLINK-5189", "line1": "1 54052U 22136B   26136.88994907  .00000437  00000+0  45509-4 0  9992", "line2": "2 54052  53.2174 357.7687 0001271  87.8094 272.3044 15.08843810197704"}, {"name": "STARLINK-5176", "line1": "1 54053U 22136C   26137.13288010 -.00000608  00000+0 -20127-4 0  9994", "line2": "2 54053  53.2195  37.0767 0001305 104.0579 256.0558 15.08848376197175"}, {"name": "STARLINK-5163", "line1": "1 54054U 22136D   26137.12552069 -.00000877  00000+0 -37044-4 0  9996", "line2": "2 54054  53.2186  37.0266 0001808  97.9262 262.1935 15.08832961197177"}]